{
  "norad_id": 53273,
  "name": "STARLINK-4051",
  "history": [
    {
      "epoch": "2026-03-28T07:25:22.119456Z",
      "apogee_km": 540.6338525049441,
      "perigee_km": 538.8006211321863,
      "latitude_deg": 2.845750226767171e-05,
      "longitude_deg": 163.4601770493336,
      "height_km": 540.4239192547423,
      "semi_major_axis_km": 6917.8542368185645,
      "eccentricity": 0.0001325,
      "inclination_deg": 53.2167,
      "raan_deg": 100.5339,
      "arg_perigee_deg": 78.0981,
      "mean_anomaly_deg": 282.016,
      "mean_motion_rev_day": 15.08848556
    },
    {
      "epoch": "2026-03-29T04:05:23.620992Z",
      "apogee_km": 540.645364738868,
      "perigee_km": 538.8453317518542,
      "latitude_deg": 2.168954091642467e-05,
      "longitude_deg": -151.26065153608337,
      "height_km": 540.4235475751489,
      "semi_major_axis_km": 6917.882348245361,
      "eccentricity": 0.0001301,
      "inclination_deg": 53.217,
      "raan_deg": 96.6681,
      "arg_perigee_deg": 76.0088,
      "mean_anomaly_deg": 284.1049,
      "mean_motion_rev_day": 15.08839359
    },
    {
      "epoch": "2026-03-30T00:45:24.197184Z",
      "apogee_km": 540.7042906560255,
      "perigee_km": 538.7700530375778,
      "latitude_deg": 1.3645568561712192e-05,
      "longitude_deg": -105.97871427337557,
      "height_km": 540.4641274702998,
      "semi_major_axis_km": 6917.874171846802,
      "eccentricity": 0.0001398,
      "inclination_deg": 53.2174,
      "raan_deg": 92.8012,
      "arg_perigee_deg": 79.9524,
      "mean_anomaly_deg": 280.1626,
      "mean_motion_rev_day": 15.08842034
    },
    {
      "epoch": "2026-03-30T07:06:56.507040Z",
      "apogee_km": 540.6990919006203,
      "perigee_km": 538.7601522437863,
      "latitude_deg": -2.5698078592168707e-06,
      "longitude_deg": 157.18639575444556,
      "height_km": 540.4501184583769,
      "semi_major_axis_km": 6917.8666220722025,
      "eccentricity": 0.00014014,
      "inclination_deg": 53.2173,
      "raan_deg": 91.6121,
      "arg_perigee_deg": 79.5897,
      "mean_anomaly_deg": 280.5253,
      "mean_motion_rev_day": 15.08844504
    },
    {
      "epoch": "2026-03-30T10:17:42.834336Z",
      "apogee_km": 540.7156774942114,
      "perigee_km": 538.7522473576564,
      "latitude_deg": 4.562229949858452e-05,
      "longitude_deg": 108.76862246185078,
      "height_km": 540.4659608393318,
      "semi_major_axis_km": 6917.870962425934,
      "eccentricity": 0.00014191,
      "inclination_deg": 53.2176,
      "raan_deg": 91.0179,
      "arg_perigee_deg": 80.4028,
      "mean_anomaly_deg": 279.7125,
      "mean_motion_rev_day": 15.08843084
    },
    {
      "epoch": "2026-03-30T23:00:48.089952Z",
      "apogee_km": 540.7071234157111,
      "perigee_km": 538.8074696418835,
      "latitude_deg": -3.437262527853284e-05,
      "longitude_deg": -84.90464970220413,
      "height_km": 540.5023854992944,
      "semi_major_axis_km": 6917.894296528797,
      "eccentricity": 0.0001373,
      "inclination_deg": 53.2167,
      "raan_deg": 88.6389,
      "arg_perigee_deg": 80.8797,
      "mean_anomaly_deg": 279.235,
      "mean_motion_rev_day": 15.0883545
    },
    {
      "epoch": "2026-03-31T16:30:02.821824Z",
      "apogee_km": 540.6893282288747,
      "perigee_km": 538.8228806692941,
      "latitude_deg": -1.6633758440136792e-06,
      "longitude_deg": 8.795009784572255,
      "height_km": 540.5159619195531,
      "semi_major_axis_km": 6917.893104449085,
      "eccentricity": 0.0001349,
      "inclination_deg": 53.2164,
      "raan_deg": 85.3681,
      "arg_perigee_deg": 81.6341,
      "mean_anomaly_deg": 278.4804,
      "mean_motion_rev_day": 15.0883584
    },
    {
      "epoch": "2026-04-01T16:20:50.108064Z",
      "apogee_km": 540.7130033556105,
      "perigee_km": 538.7925971470604,
      "latitude_deg": 5.637988186354003e-05,
      "longitude_deg": 5.65828856274595,
      "height_km": 540.5493589114935,
      "semi_major_axis_km": 6917.889800251335,
      "eccentricity": 0.0001388,
      "inclination_deg": 53.2167,
      "raan_deg": 80.9077,
      "arg_perigee_deg": 84.0799,
      "mean_anomaly_deg": 276.0352,
      "mean_motion_rev_day": 15.08836921
    },
    {
      "epoch": "2026-04-02T16:11:36.926016Z",
      "apogee_km": 540.7576392263818,
      "perigee_km": 538.7297316822469,
      "latitude_deg": 5.932834930658614e-05,
      "longitude_deg": 2.5234825025073078,
      "height_km": 540.5404751600971,
      "semi_major_axis_km": 6917.880685454314,
      "eccentricity": 0.00014657,
      "inclination_deg": 53.2174,
      "raan_deg": 76.4473,
      "arg_perigee_deg": 84.4098,
      "mean_anomaly_deg": 275.7062,
      "mean_motion_rev_day": 15.08839903
    },
    {
      "epoch": "2026-04-03T16:02:24.087840Z",
      "apogee_km": 540.7026941321947,
      "perigee_km": 538.8071917398302,
      "latitude_deg": -8.662651973143123e-06,
      "longitude_deg": -0.6139137120915527,
      "height_km": 540.6574130315734,
      "semi_major_axis_km": 6917.891942936012,
      "eccentricity": 0.000137,
      "inclination_deg": 53.2166,
      "raan_deg": 71.9858,
      "arg_perigee_deg": 90.4149,
      "mean_anomaly_deg": 269.7,
      "mean_motion_rev_day": 15.0883622
    },
    {
      "epoch": "2026-04-04T07:56:15.798624Z",
      "apogee_km": 540.7528707247238,
      "perigee_km": 538.7601023269963,
      "latitude_deg": -1.3910735485082402e-05,
      "longitude_deg": 117.29342521248346,
      "height_km": 540.6486608266466,
      "semi_major_axis_km": 6917.89348652586,
      "eccentricity": 0.00014403,
      "inclination_deg": 53.2173,
      "raan_deg": 69.0115,
      "arg_perigee_deg": 89.8039,
      "mean_anomaly_deg": 270.3118,
      "mean_motion_rev_day": 15.08835715
    },
    {
      "epoch": "2026-04-05T07:47:02.832576Z",
      "apogee_km": 540.8024046389237,
      "perigee_km": 538.6992283849477,
      "latitude_deg": -1.3393132654323636e-05,
      "longitude_deg": 114.15771280062468,
      "height_km": 540.6926747237799,
      "semi_major_axis_km": 6917.887816511935,
      "eccentricity": 0.00015201,
      "inclination_deg": 53.2176,
      "raan_deg": 64.5511,
      "arg_perigee_deg": 92.5263,
      "mean_anomaly_deg": 267.5903,
      "mean_motion_rev_day": 15.0883757
    }
  ]
}